[{"OBJECT_NAME":"GPS BIIR-08","OBJECT_ID":"2003-005A","EPOCH":"2026-03-14T09:14:37.912992","MEAN_MOTION":2.0056572,"ECCENTRICITY":0.01486854,"INCLINATION":54.9049,"RA_OF_ASC_NODE":218.7332,"ARG_OF_PERICENTER":52.7877,"MEAN_ANOMALY":315.0636,"EPHEMERIS_TYPE":0,"CLASSIFICATION_TYPE":"U","NORAD_CAT_ID":27663,"ELEMENT_SET_NO":999,"REV_AT_EPOCH":16941,"BSTAR":0,"MEAN_MOTION_DOT":1.9e-7,"MEAN_MOTION_DDOT":0},{"OBJECT_NAME":"GPS BIIR-11","OBJECT_ID":"2004-009A","EPOCH":"2026-03-14T09:06:01.528704","MEAN_MOTION":2.00557837,"ECCENTRICITY":0.01114344,"INCLINATION":54.908,"RA_OF_ASC_NODE":279.5164,"ARG_OF_PERICENTER":169.3433,"MEAN_ANOMALY":349.7979,"EPHEMERIS_TYPE":0,"CLASSIFICATION_TYPE":"U","NORAD_CAT_ID":28190,"ELEMENT_SET_NO":999,"REV_AT_EPOCH":16104,"BSTAR":0,"MEAN_MOTION_DOT":2.8e-7,"MEAN_MOTION_DDOT":0},{"OBJECT_NAME":"GPS BIIR-13","OBJECT_ID":"2004-045A","EPOCH":"2026-03-13T07:54:48.170880","MEAN_MOTION":2.00573937,"ECCENTRICITY":0.01707098,"INCLINATION":55.1896,"RA_OF_ASC_NODE":328.7595,"ARG_OF_PERICENTER":313.1823,"MEAN_ANOMALY":232.1022,"EPHEMERIS_TYPE":0,"CLASSIFICATION_TYPE":"U","NORAD_CAT_ID":28474,"ELEMENT_SET_NO":999,"REV_AT_EPOCH":15650,"BSTAR":0,"MEAN_MOTION_DOT":-7.1e-7,"MEAN_MOTION_DDOT":0},{"OBJECT_NAME":"GPS BIIR-14M","OBJECT_ID":"2005-038A","EPOCH":"2026-03-14T09:43:57.925920","MEAN_MOTION":2.00572369,"ECCENTRICITY":0.01285418,"INCLINATION":54.9554,"RA_OF_ASC_NODE":277.0011,"ARG_OF_PERICENTER":295.4769,"MEAN_ANOMALY":267.0042,"EPHEMERIS_TYPE":0,"CLASSIFICATION_TYPE":"U","NORAD_CAT_ID":28874,"ELEMENT_SET_NO":999,"REV_AT_EPOCH":14993,"BSTAR":0,"MEAN_MOTION_DOT":3.2e-7,"MEAN_MOTION_DDOT":0},{"OBJECT_NAME":"METEOSAT-9 (MSG-2)","OBJECT_ID":"2005-049B","EPOCH":"2026-03-13T12:11:24.692352","MEAN_MOTION":1.00267419,"ECCENTRICITY":1.841e-5,"INCLINATION":9.1445,"RA_OF_ASC_NODE":55.0898,"ARG_OF_PERICENTER":58.1827,"MEAN_ANOMALY":286.5308,"EPHEMERIS_TYPE":0,"CLASSIFICATION_TYPE":"U","NORAD_CAT_ID":28912,"ELEMENT_SET_NO":999,"REV_AT_EPOCH":603,"BSTAR":0,"MEAN_MOTION_DOT":1.28e-6,"MEAN_MOTION_DDOT":0},{"OBJECT_NAME":"GPS BIIR-16M","OBJECT_ID":"2006-052A","EPOCH":"2026-03-11T16:37:48.789984","MEAN_MOTION":2.00552224,"ECCENTRICITY":0.0087716,"INCLINATION":54.9554,"RA_OF_ASC_NODE":217.8682,"ARG_OF_PERICENTER":89.5016,"MEAN_ANOMALY":271.4739,"EPHEMERIS_TYPE":0,"CLASSIFICATION_TYPE":"U","NORAD_CAT_ID":29601,"ELEMENT_SET_NO":999,"REV_AT_EPOCH":14145,"BSTAR":0,"MEAN_MOTION_DOT":3.3e-7,"MEAN_MOTION_DDOT":0},{"OBJECT_NAME":"GPS BIIR-17M","OBJECT_ID":"2007-047A","EPOCH":"2026-03-13T23:50:57.660288","MEAN_MOTION":2.00560318,"ECCENTRICITY":0.01636875,"INCLINATION":54.0235,"RA_OF_ASC_NODE":83.9876,"ARG_OF_PERICENTER":86.0468,"MEAN_ANOMALY":275.875,"EPHEMERIS_TYPE":0,"CLASSIFICATION_TYPE":"U","NORAD_CAT_ID":32260,"ELEMENT_SET_NO":999,"REV_AT_EPOCH":13490,"BSTAR":0,"MEAN_MOTION_DOT":3.0e-7,"MEAN_MOTION_DDOT":0},{"OBJECT_NAME":"GPS BIIR-18M","OBJECT_ID":"2007-062A","EPOCH":"2026-03-13T01:25:28.658208","MEAN_MOTION":2.00554193,"ECCENTRICITY":0.00331869,"INCLINATION":55.1084,"RA_OF_ASC_NODE":278.0153,"ARG_OF_PERICENTER":160.7725,"MEAN_ANOMALY":12.4048,"EPHEMERIS_TYPE":0,"CLASSIFICATION_TYPE":"U","NORAD_CAT_ID":32384,"ELEMENT_SET_NO":999,"REV_AT_EPOCH":13358,"BSTAR":0,"MEAN_MOTION_DOT":2.9e-7,"MEAN_MOTION_DDOT":0},{"OBJECT_NAME":"GOES 14","OBJECT_ID":"2009-033A","EPOCH":"2026-03-14T14:34:29.218368","MEAN_MOTION":1.00103446,"ECCENTRICITY":0.00016796,"INCLINATION":1.444,"RA_OF_ASC_NODE":84.2624,"ARG_OF_PERICENTER":273.983,"MEAN_ANOMALY":228.1978,"EPHEMERIS_TYPE":0,"CLASSIFICATION_TYPE":"U","NORAD_CAT_ID":35491,"ELEMENT_SET_NO":999,"REV_AT_EPOCH":564,"BSTAR":0,"MEAN_MOTION_DOT":1.1e-6,"MEAN_MOTION_DDOT":0},{"OBJECT_NAME":"GOES 15","OBJECT_ID":"2010-008A","EPOCH":"2026-03-14T14:58:36.642144","MEAN_MOTION":1.00270283,"ECCENTRICITY":0.00025447,"INCLINATION":1.032,"RA_OF_ASC_NODE":84.9083,"ARG_OF_PERICENTER":17.1366,"MEAN_ANOMALY":358.2423,"EPHEMERIS_TYPE":0,"CLASSIFICATION_TYPE":"U","NORAD_CAT_ID":36411,"ELEMENT_SET_NO":999,"REV_AT_EPOCH":5869,"BSTAR":0,"MEAN_MOTION_DOT":2.1e-7,"MEAN_MOTION_DDOT":0},{"OBJECT_NAME":"GSAT0101 (GALILEO-PFM)","OBJECT_ID":"2011-060A","EPOCH":"2026-02-22T11:08:37.810464","MEAN_MOTION":1.70475478,"ECCENTRICITY":0.00039756,"INCLINATION":57.0318,"RA_OF_ASC_NODE":344.8758,"ARG_OF_PERICENTER":357.0591,"MEAN_ANOMALY":2.9533,"EPHEMERIS_TYPE":0,"CLASSIFICATION_TYPE":"U","NORAD_CAT_ID":37846,"ELEMENT_SET_NO":999,"REV_AT_EPOCH":8916,"BSTAR":0,"MEAN_MOTION_DOT":-8.2e-7,"MEAN_MOTION_DDOT":0},{"OBJECT_NAME":"GSAT0102 (GALILEO-FM2)","OBJECT_ID":"2011-060B","EPOCH":"2026-03-01T01:30:59.316192","MEAN_MOTION":1.70475778,"ECCENTRICITY":0.00054225,"INCLINATION":57.0301,"RA_OF_ASC_NODE":344.6971,"ARG_OF_PERICENTER":341.2092,"MEAN_ANOMALY":154.1953,"EPHEMERIS_TYPE":0,"CLASSIFICATION_TYPE":"U","NORAD_CAT_ID":37847,"ELEMENT_SET_NO":999,"REV_AT_EPOCH":8928,"BSTAR":0,"MEAN_MOTION_DOT":-1.06e-6,"MEAN_MOTION_DDOT":0},{"OBJECT_NAME":"LUCH 5A","OBJECT_ID":"2011-074B","EPOCH":"2026-03-14T07:35:29.220288","MEAN_MOTION":1.00268954,"ECCENTRICITY":0.00034012,"INCLINATION":8.5116,"RA_OF_ASC_NODE":75.1968,"ARG_OF_PERICENTER":262.5594,"MEAN_ANOMALY":115.1508,"EPHEMERIS_TYPE":0,"CLASSIFICATION_TYPE":"U","NORAD_CAT_ID":37951,"ELEMENT_SET_NO":999,"REV_AT_EPOCH":5210,"BSTAR":0,"MEAN_MOTION_DOT":-4.5e-7,"MEAN_MOTION_DDOT":0},{"OBJECT_NAME":"METEOSAT-10 (MSG-3)","OBJECT_ID":"2012-035B","EPOCH":"2026-03-14T13:38:42.614592","MEAN_MOTION":1.00269338,"ECCENTRICITY":0.00023537,"INCLINATION":4.4463,"RA_OF_ASC_NODE":61.4124,"ARG_OF_PERICENTER":287.8622,"MEAN_ANOMALY":27.7302,"EPHEMERIS_TYPE":0,"CLASSIFICATION_TYPE":"U","NORAD_CAT_ID":38552,"ELEMENT_SET_NO":999,"REV_AT_EPOCH":4990,"BSTAR":0,"MEAN_MOTION_DOT":-5.0e-8,"MEAN_MOTION_DDOT":0},{"OBJECT_NAME":"SARSAT 13 (METOP-B)","OBJECT_ID":"2012-049A","EPOCH":"2026-03-14T14:00:17.903520","MEAN_MOTION":14.21446444,"ECCENTRICITY":0.00013123,"INCLINATION":98.6632,"RA_OF_ASC_NODE":126.9191,"ARG_OF_PERICENTER":239.8727,"MEAN_ANOMALY":120.232,"EPHEMERIS_TYPE":0,"CLASSIFICATION_TYPE":"U","NORAD_CAT_ID":38771,"ELEMENT_SET_NO":999,"REV_AT_EPOCH":69982,"BSTAR":7.7649019e-5,"MEAN_MOTION_DOT":1.26e-6,"MEAN_MOTION_DDOT":0},{"OBJECT_NAME":"GPS BIIF-3","OBJECT_ID":"2012-053A","EPOCH":"2026-03-14T02:09:17.761824","MEAN_MOTION":2.00565997,"ECCENTRICITY":0.0177046,"INCLINATION":53.5669,"RA_OF_ASC_NODE":147.4965,"ARG_OF_PERICENTER":64.8456,"MEAN_ANOMALY":297.0314,"EPHEMERIS_TYPE":0,"CLASSIFICATION_TYPE":"U","NORAD_CAT_ID":38833,"ELEMENT_SET_NO":999,"REV_AT_EPOCH":9753,"BSTAR":0,"MEAN_MOTION_DOT":-2.0e-8,"MEAN_MOTION_DDOT":0},{"OBJECT_NAME":"GSAT0103 (GALILEO-FM3)","OBJECT_ID":"2012-055A","EPOCH":"2026-03-14T10:46:07.247136","MEAN_MOTION":1.70473501,"ECCENTRICITY":0.00056194,"INCLINATION":55.7469,"RA_OF_ASC_NODE":104.1441,"ARG_OF_PERICENTER":286.5139,"MEAN_ANOMALY":73.502,"EPHEMERIS_TYPE":0,"CLASSIFICATION_TYPE":"U","NORAD_CAT_ID":38857,"ELEMENT_SET_NO":999,"REV_AT_EPOCH":8339,"BSTAR":0,"MEAN_MOTION_DOT":4.0e-7,"MEAN_MOTION_DDOT":0}]
